{"type":"FeatureCollection","features":[{"type":"Feature","geometry":{"type":"Polygon","coordinates":[[[116.3004617,39.9851791],[116.3003677,39.9864006],[116.2994966,39.98639],[116.2984634,39.9931543],[116.2985974,39.9931592],[116.2985916,39.9933919],[116.2984734,39.9933893],[116.2984578,39.9939562],[116.2984264,39.9948007],[116.2983911,39.9958545],[116.3008489,39.9961909],[116.3011623,39.9962501],[116.3013332,39.9963362],[116.3015876,39.9965626],[116.3018948,39.996854],[116.3024428,39.9973739],[116.3028049,39.9975695],[116.3032563,39.9977573],[116.3038116,39.9978738],[116.3053797,39.9982026],[116.3056759,39.9982346],[116.3058293,39.9982373],[116.3059979,39.9982402],[116.3062102,39.9970351],[116.3067154,39.9970828],[116.3069369,39.9957638],[116.3089361,39.995902],[116.3091399,39.9929106],[116.3093135,39.9907323],[116.3092952,39.9906958],[116.3094595,39.9888646],[116.3094367,39.9887974],[116.3094698,39.9887223],[116.309524,39.9879948],[116.3095036,39.9879245],[116.309524,39.9878347],[116.3095834,39.9868598],[116.3095553,39.9867679],[116.3095894,39.9866939],[116.3095878,39.9864591],[116.3095845,39.9860867],[116.3093521,39.9857161],[116.3093613,39.9853308],[116.308563,39.9853151],[116.3054565,39.98527],[116.3004617,39.9851791]]]},"properties":{"layer":"boundary","name_zh":"北京大学","name_en":"Peking University"}},{"type":"Feature","geometry":{"type":"Polygon","coordinates":[[[116.2989209,39.9929767],[116.2988867,39.9933015],[116.2988806,39.993647],[116.2991326,39.9936491],[116.2991411,39.9929701],[116.2991221,39.9929498],[116.2989368,39.9929534],[116.2989209,39.9929767]]]},"properties":{"layer":"water","name_zh":"","name_en":""}},{"type":"Feature","geometry":{"type":"Polygon","coordinates":[[[116.2987981,39.9957522],[116.2987396,39.9957876],[116.2986811,39.9957782],[116.2986441,39.9957664],[116.2985979,39.9957805],[116.2985732,39.995764],[116.2985208,39.9957546],[116.2985116,39.995731],[116.298551,39.9956884],[116.298641,39.9956743],[116.298718,39.9956719],[116.2987827,39.9956649],[116.2988197,39.9956295],[116.2988166,39.9955067],[116.2988628,39.9954595],[116.2988425,39.9954201],[116.2987791,39.9953843],[116.2987586,39.9953135],[116.2987577,39.995234],[116.2987966,39.9951721],[116.2987884,39.9951086],[116.2987588,39.9950352],[116.298726,39.9949669],[116.2987299,39.9949032],[116.2987605,39.9948561],[116.2988404,39.994827],[116.2990169,39.9948175],[116.2992849,39.9948175],[116.2994082,39.9948222],[116.2994566,39.994845],[116.2994524,39.9948931],[116.2994307,39.994919],[116.2993865,39.9949323],[116.2993638,39.9949551],[116.2993517,39.994989],[116.2993363,39.9950181],[116.2993302,39.9950701],[116.299347,39.9951129],[116.2993589,39.9951366],[116.299381,39.9951589],[116.2993847,39.9951761],[116.299366,39.9951981],[116.2993261,39.9952176],[116.2992675,39.9952129],[116.2992206,39.9952232],[116.2992087,39.9952529],[116.2992048,39.9953061],[116.2992086,39.9953345],[116.2991995,39.9953848],[116.2991567,39.995465],[116.2991308,39.9955075],[116.2991295,39.9955481],[116.2991481,39.995591],[116.2992079,39.9956601],[116.2992326,39.9956932],[116.2992079,39.9957215],[116.2991401,39.9957546],[116.2990477,39.9957144],[116.2989583,39.9957026],[116.2988752,39.9957121],[116.2987981,39.9957522]]]},"properties":{"layer":"water","name_zh":"荷花池","name_en":"Lotus Pond"}},{"type":"Feature","geometry":{"type":"Polygon","coordinates":[[[116.3009127,39.9956629],[116.3009854,39.9956429],[116.3010051,39.9955449],[116.3010311,39.995389],[116.3010327,39.9953205],[116.3010268,39.9952838],[116.3009869,39.9952764],[116.3009506,39.9952589],[116.3009401,39.9952169],[116.3009369,39.9951756],[116.3009442,39.9951462],[116.300987,39.995122],[116.3009848,39.9950787],[116.300971,39.9950524],[116.3009208,39.9950541],[116.3008634,39.9950633],[116.3007617,39.9950515],[116.300657,39.9950681],[116.3005299,39.9951113],[116.3005182,39.9951877],[116.3005245,39.9952309],[116.3005796,39.9952684],[116.3005923,39.9952994],[116.3005926,39.9954231],[116.3005696,39.9954829],[116.3005732,39.995511],[116.3005204,39.9955138],[116.300524,39.9955799],[116.3005623,39.9956171],[116.3006293,39.9956464],[116.3006715,39.9956617],[116.3007648,39.9956629],[116.3009127,39.9956629]]]},"properties":{"layer":"water","name_zh":"红湖","name_en":"Red Lake"}},{"type":"Feature","geometry":{"type":"Polygon","coordinates":[[[116.3001398,39.9951149],[116.3003569,39.9951169],[116.300359,39.994987],[116.3001419,39.994985],[116.3001398,39.9951149]]]},"properties":{"layer":"water","name_zh":"方池","name_en":""}},{"type":"Feature","geometry":{"type":"Polygon","coordinates":[[[116.2989624,39.994216],[116.2991966,39.9942112],[116.2992549,39.9941823],[116.2992613,39.9941404],[116.2992583,39.9940058],[116.2992196,39.9939027],[116.2991808,39.9938178],[116.2989979,39.9937732],[116.2989495,39.9937801],[116.2988946,39.99381],[116.2988018,39.9939003],[116.2987748,39.993993],[116.298771,39.9940443],[116.2988145,39.9940791],[116.2988389,39.9941352],[116.2988761,39.9941782],[116.2989624,39.994216]]]},"properties":{"layer":"water","name_zh":"鸣鹤园池塘","name_en":"Minghe Yuan Lake"}},{"type":"Feature","geometry":{"type":"Polygon","coordinates":[[[116.2990826,39.9915274],[116.2991747,39.9915217],[116.2992705,39.9914967],[116.2993353,39.991457],[116.2993749,39.991425],[116.2994268,39.9914044],[116.2994654,39.9913568],[116.2994914,39.991305],[116.2995086,39.9912366],[116.2994978,39.9911853],[116.299458,39.9911464],[116.2994167,39.9911398],[116.2993791,39.991132],[116.2993197,39.9911137],[116.2992459,39.991097],[116.299171,39.9911003],[116.2990961,39.991145],[116.2990333,39.9911922],[116.2990156,39.9912787],[116.2989872,39.9913884],[116.2989937,39.9914773],[116.2990309,39.9915162],[116.2990826,39.9915274]]]},"properties":{"layer":"water","name_zh":"勺海","name_en":""}},{"type":"Feature","geometry":{"type":"Polygon","coordinates":[[[116.3035094,39.993043],[116.3033537,39.9931067],[116.3031629,39.9931869],[116.3030625,39.9931745],[116.3029589,39.993304],[116.3028302,39.9935341],[116.3028682,39.9936397],[116.3029329,39.993667],[116.3029346,39.9937117],[116.3029993,39.9937303],[116.3030104,39.9937511],[116.3029854,39.9937695],[116.3028161,39.9937587],[116.3027322,39.9937508],[116.3026672,39.9937482],[116.3025905,39.9936942],[116.3025176,39.9936193],[116.3024288,39.9936053],[116.3023751,39.9936007],[116.3023452,39.9935697],[116.302344,39.9935365],[116.3023882,39.9935032],[116.3024828,39.9934425],[116.3024896,39.9933775],[116.3024472,39.9933222],[116.3023549,39.9933023],[116.302146,39.9933631],[116.3018332,39.9934889],[116.3013727,39.9937049],[116.3011763,39.9937128],[116.3009637,39.9937071],[116.3009466,39.9936881],[116.3009591,39.9936665],[116.3012787,39.9936641],[116.3014572,39.9935969],[116.3016703,39.9934361],[116.3019178,39.9933113],[116.3022794,39.9932277],[116.302224,39.9930774],[116.3023058,39.9929656],[116.3025791,39.9928676],[116.3028988,39.9927253],[116.3030987,39.9926724],[116.3034079,39.9926241],[116.3034224,39.9924909],[116.3034271,39.9922345],[116.3034,39.9922064],[116.303374,39.9921732],[116.3033799,39.9921488],[116.3034061,39.99211],[116.303444,39.9920656],[116.3035205,39.9920327],[116.3036092,39.9920211],[116.3037169,39.9920249],[116.3038013,39.9920264],[116.3039008,39.9920442],[116.3039694,39.9920627],[116.3039929,39.9920863],[116.3039935,39.9921227],[116.3039795,39.9921794],[116.3039461,39.9922172],[116.3039113,39.9922416],[116.3038672,39.9922572],[116.3038189,39.992272],[116.3037684,39.992281],[116.3037073,39.9922861],[116.3036392,39.9922819],[116.3035199,39.9926365],[116.3035856,39.992657],[116.304006,39.9928305],[116.3041462,39.9928741],[116.3041786,39.9928947],[116.3041947,39.992916],[116.304192,39.9929347],[116.3042026,39.9929499],[116.304224,39.9929587],[116.304252,39.9929625],[116.3042815,39.9929635],[116.3043119,39.992954],[116.3043323,39.9929388],[116.3043484,39.9929167],[116.3043622,39.9929039],[116.3043948,39.9928963],[116.3044234,39.9928874],[116.3044584,39.992873],[116.3044883,39.9928498],[116.3045132,39.9928145],[116.3045457,39.9927768],[116.3045865,39.9927381],[116.3046217,39.9927065],[116.3046504,39.9926781],[116.304697,39.9926603],[116.3047416,39.992651],[116.3047989,39.9926503],[116.3048613,39.9926585],[116.3049132,39.9926647],[116.3049939,39.9926612],[116.305063,39.992653],[116.3051162,39.9926483],[116.3051566,39.9926591],[116.3052043,39.9926848],[116.3052487,39.9927203],[116.3052816,39.9927866],[116.305293,39.9928397],[116.3053036,39.9930063],[116.3052607,39.9934913],[116.3051991,39.993659],[116.3048723,39.9940765],[116.3048394,39.9941246],[116.304847,39.9941673],[116.3048661,39.994201],[116.3049176,39.9942395],[116.3049891,39.9942672],[116.3050553,39.9942851],[116.3050529,39.9943213],[116.3050228,39.9943336],[116.3049646,39.9943475],[116.3049366,39.9943491],[116.3048765,39.9943021],[116.3048379,39.9942763],[116.3047955,39.9942257],[116.3046196,39.9942187],[116.3037314,39.9942048],[116.3033451,39.9941588],[116.3031927,39.9941078],[116.3031176,39.9940338],[116.3031337,39.9937543],[116.30319,39.9936783],[116.3032705,39.9936516],[116.3033885,39.9936742],[116.3034673,39.993739],[116.3035132,39.9937471],[116.303599,39.9937379],[116.303658,39.9937297],[116.3037144,39.9937369],[116.3037559,39.993781],[116.3037993,39.9938234],[116.3038538,39.9938375],[116.3038954,39.9938221],[116.3039008,39.9937913],[116.3039008,39.9937081],[116.3038485,39.9936331],[116.3038268,39.993574],[116.3038236,39.9932887],[116.303775,39.9931212],[116.3036541,39.9930672],[116.3035094,39.993043]]]},"properties":{"layer":"water","name_zh":"未名湖","name_en":"Weiming Lake"}},{"type":"Feature","geometry":{"type":"Polygon","coordinates":[[[116.2991694,39.9977694],[116.2990969,39.997603],[116.2990916,39.9975146],[116.2990487,39.9974407],[116.2989897,39.9974057],[116.2981528,39.9971941],[116.2980536,39.9972023],[116.2980267,39.9972742],[116.298075,39.9973256],[116.2981984,39.9973975],[116.298598,39.9974838],[116.2988529,39.9975372],[116.2989709,39.9975948],[116.2990352,39.99764],[116.2990916,39.9977078],[116.299105,39.9977879],[116.2990862,39.9978681],[116.2990996,39.9979359],[116.2990716,39.998007],[116.2991003,39.9981114],[116.2990204,39.9982109],[116.2991059,39.9982502],[116.2990909,39.9982782],[116.2991252,39.9982937],[116.2991529,39.9982715],[116.2991839,39.9982732],[116.2992031,39.9982908],[116.299245,39.9982734],[116.2992793,39.9982637],[116.2993593,39.9981473],[116.2993785,39.9981359],[116.2993747,39.9980685],[116.2993551,39.9980708],[116.29927,39.9980001],[116.2992042,39.9979318],[116.2992042,39.9978701],[116.2991694,39.9977694]]]},"properties":{"layer":"water","name_zh":"","name_en":""}},{"type":"Feature","geometry":{"type":"Polygon","coordinates":[[[116.3018912,39.9960104],[116.3018625,39.9959976],[116.301841,39.9959701],[116.3018266,39.9959096],[116.3018099,39.99584],[116.3018099,39.9957942],[116.3018219,39.9957649],[116.3018123,39.9957228],[116.3018003,39.9956641],[116.3018099,39.995611],[116.3018243,39.9955744],[116.3018434,39.9955451],[116.3018601,39.9955011],[116.3018601,39.9954516],[116.3018506,39.9954205],[116.301829,39.9953783],[116.3017956,39.995316],[116.3017956,39.9952574],[116.3017979,39.9952025],[116.3018219,39.9951548],[116.3018506,39.9951072],[116.3019056,39.9950907],[116.3019582,39.9950797],[116.3019988,39.995076],[116.3020754,39.9950797],[116.3021256,39.9950797],[116.3021758,39.9950669],[116.3022284,39.9950522],[116.3022954,39.9950522],[116.3023504,39.9950614],[116.3023958,39.9950779],[116.3024101,39.9951109],[116.302391,39.9951475],[116.3023695,39.995164],[116.3023695,39.9951915],[116.3023695,39.9952171],[116.3023456,39.9952336],[116.3022858,39.9952464],[116.3022284,39.9952464],[116.3021854,39.9952391],[116.3021375,39.9952263],[116.3020945,39.9952208],[116.3020562,39.9952464],[116.3020395,39.9952831],[116.3020275,39.9953252],[116.3020299,39.9953564],[116.3020108,39.9953875],[116.3019725,39.995404],[116.3019175,39.9954241],[116.301908,39.9954498],[116.3019103,39.9954773],[116.3019103,39.9955231],[116.3019319,39.9955451],[116.301963,39.9955542],[116.301994,39.9955689],[116.3020299,39.9955963],[116.3020634,39.9956165],[116.3021184,39.9956092],[116.3021854,39.9955835],[116.3022523,39.9955652],[116.3023049,39.9955597],[116.3023719,39.9955414],[116.3024173,39.9955249],[116.3024699,39.9955212],[116.3025202,39.9955011],[116.3025417,39.9954681],[116.3025536,39.9954168],[116.3025465,39.9953582],[116.3025417,39.995316],[116.3025321,39.9952757],[116.3025058,39.9952098],[116.302501,39.9951713],[116.3025273,39.9951567],[116.3025656,39.9951512],[116.3026182,39.9951768],[116.3026612,39.9952244],[116.3026732,39.9952702],[116.3026636,39.9953289],[116.3026517,39.9954278],[116.302623,39.9954956],[116.3026278,39.9955286],[116.3026756,39.9955597],[116.302721,39.9955762],[116.302776,39.9955835],[116.3028263,39.9955835],[116.3028956,39.9955799],[116.3029458,39.9955634],[116.3029793,39.9955194],[116.3030247,39.9954864],[116.3031037,39.9954718],[116.3031682,39.9954773],[116.3032304,39.9954956],[116.3032806,39.9955286],[116.3032854,39.995578],[116.3032711,39.9956348],[116.3032448,39.9956678],[116.3031993,39.9956806],[116.3031347,39.9956971],[116.3030439,39.9957154],[116.3029363,39.9957264],[116.3028573,39.9957264],[116.3027617,39.9957136],[116.302733,39.9956861],[116.302721,39.9956513],[116.302666,39.9956367],[116.3026015,39.9956403],[116.302556,39.9956495],[116.3025465,39.9956696],[116.3025871,39.9956934],[116.3025656,39.9957136],[116.302513,39.9957154],[116.3024604,39.9957136],[116.3023886,39.9957118],[116.3023097,39.9957338],[116.3022117,39.9957502],[116.3021662,39.9957539],[116.3021088,39.9957594],[116.3020706,39.9957832],[116.3020538,39.995807],[116.3020538,39.9958309],[116.302049,39.995851],[116.3020251,39.9958675],[116.3020132,39.9959005],[116.3020251,39.9959206],[116.3020025,39.9959448],[116.3019743,39.9959758],[116.3019671,39.9959905],[116.3019411,39.9960032],[116.3018912,39.9960104]]]},"properties":{"layer":"water","name_zh":"","name_en":""}},{"type":"Feature","geometry":{"type":"Polygon","coordinates":[[[116.2988672,39.9922549],[116.2988646,39.9917818],[116.298885,39.9917447],[116.2989259,39.991729],[116.2992168,39.9916547],[116.2993163,39.9916254],[116.2993801,39.991598],[116.2994388,39.9915609],[116.2994796,39.9915159],[116.2995179,39.9914749],[116.299546,39.9914299],[116.2995485,39.9913928],[116.2995531,39.9913646],[116.2995802,39.9913687],[116.2996253,39.9914116],[116.2997263,39.9914738],[116.2997877,39.9915332],[116.2998833,39.9915775],[116.2999573,39.9916093],[116.300006,39.9916507],[116.300015,39.9916784],[116.3000024,39.9917143],[116.299957,39.9917543],[116.2999248,39.9917806],[116.2998497,39.991811],[116.2997756,39.9918521],[116.2997016,39.991885],[116.2996265,39.991936],[116.2995845,39.9919743],[116.2995526,39.9920289],[116.2995314,39.9920743],[116.2994919,39.9921115],[116.2994585,39.9921382],[116.2994176,39.9921673],[116.2993796,39.992187],[116.2993114,39.9922184],[116.2992385,39.9922405],[116.2991627,39.9922603],[116.2990883,39.9922672],[116.2989912,39.9922707],[116.2989108,39.9922684],[116.2988774,39.9922684],[116.2988672,39.9922549]]]},"properties":{"layer":"water","name_zh":"","name_en":""}},{"type":"Feature","geometry":{"type":"Polygon","coordinates":[[[116.2989368,39.9929534],[116.2989094,39.9928898],[116.298876,39.9928445],[116.2988608,39.9928026],[116.2988593,39.9927584],[116.2988487,39.9927201],[116.2988274,39.9926933],[116.2988062,39.9926538],[116.2988062,39.9926213],[116.2988274,39.9925969],[116.2988547,39.9925992],[116.2988866,39.9926143],[116.2989473,39.9926434],[116.2989867,39.9926608],[116.2990368,39.9926852],[116.2990808,39.9927073],[116.2991066,39.9927236],[116.2991172,39.9927596],[116.2991294,39.9928026],[116.2991339,39.9928491],[116.2991324,39.9928828],[116.2991233,39.9928991],[116.2991142,39.9929096],[116.2991221,39.9929498],[116.2989368,39.9929534]]]},"properties":{"layer":"water","name_zh":"","name_en":""}},{"type":"Feature","geometry":{"type":"Polygon","coordinates":[[[116.3041785,39.9951484],[116.3042748,39.9950878],[116.3043573,39.9950588],[116.3044742,39.9950852],[116.3046461,39.9951932],[116.3047046,39.9952353],[116.3048245,39.9952935],[116.3048302,39.9953909],[116.3048042,39.9955859],[116.3048274,39.9956634],[116.3048736,39.9957011],[116.3049488,39.9957143],[116.3049951,39.9956789],[116.3049922,39.9956124],[116.3049979,39.9955238],[116.3050471,39.9954596],[116.3051078,39.9953821],[116.3051338,39.9952602],[116.3051338,39.9952093],[116.3051165,39.9951672],[116.3050182,39.9951606],[116.3049488,39.9951606],[116.3048967,39.9951783],[116.3048678,39.9952359],[116.3048418,39.9952514],[116.3047493,39.9952137],[116.3046799,39.9951561],[116.3045787,39.9950786],[116.3045006,39.9950299],[116.3044052,39.9950055],[116.304278,39.9950299],[116.3041912,39.9950698],[116.3041421,39.9951229],[116.304145,39.9951473],[116.3041785,39.9951484]]]},"properties":{"layer":"water","name_zh":"","name_en":""}},{"type":"Feature","geometry":{"type":"Polygon","coordinates":[[[116.2966244,39.9937811],[116.2968343,39.9936785],[116.2970948,39.9937211],[116.2972844,39.9937773],[116.297287,39.9938121],[116.2973628,39.9938371],[116.2974442,39.9938364],[116.2975236,39.9939333],[116.2975526,39.9939687],[116.2975225,39.9941546],[116.2974423,39.9943234],[116.2972821,39.9944263],[116.29712,39.9944035],[116.2968612,39.994312],[116.296558,39.994312],[116.2964416,39.9941789],[116.2963548,39.9942668],[116.2965383,39.9943817],[116.2968459,39.9943916],[116.2970063,39.9944856],[116.2971654,39.9945573],[116.2973217,39.9945862],[116.297424,39.9944961],[116.2975076,39.9943718],[116.2975889,39.994164],[116.2976288,39.9940416],[116.2977391,39.994028],[116.2978583,39.9939672],[116.297958,39.993868],[116.2978688,39.9937114],[116.297641,39.9936339],[116.2974614,39.9936397],[116.2974539,39.9935835],[116.2968469,39.9935951],[116.2966598,39.9935758],[116.2965334,39.9936513],[116.2964828,39.9937308],[116.2965081,39.9937908],[116.2965561,39.9938238],[116.2966244,39.9937811]]]},"properties":{"layer":"water","name_zh":"","name_en":""}},{"type":"Feature","geometry":{"type":"Polygon","coordinates":[[[116.301188,39.9947593],[116.3012092,39.9947779],[116.3012548,39.994798],[116.3012927,39.9948533],[116.3013053,39.9948989],[116.3012945,39.9949542],[116.3011177,39.9949929],[116.3011032,39.995004],[116.3010671,39.9950316],[116.3010635,39.9950607],[116.3011122,39.9951049],[116.3011555,39.9951395],[116.3012494,39.995182],[116.3012638,39.9952028],[116.3012656,39.9952636],[116.3012494,39.9953424],[116.3012313,39.9954474],[116.3012007,39.995493],[116.3011952,39.9955304],[116.3011989,39.9955981],[116.3012367,39.9956382],[116.3012584,39.9957073],[116.3012259,39.9957267],[116.3011989,39.9957432],[116.3012043,39.9957806],[116.3012213,39.9957863],[116.3012365,39.9957913],[116.3012945,39.9957667],[116.3013486,39.995717],[116.3013919,39.9956755],[116.3014118,39.9956506],[116.3014064,39.9956313],[116.3013703,39.9956022],[116.3013342,39.9955884],[116.3012981,39.995547],[116.3012945,39.9954474],[116.3013179,39.9953949],[116.301354,39.9953797],[116.3013955,39.9953341],[116.3013955,39.9952954],[116.3013576,39.9952346],[116.3013396,39.9951765],[116.3013486,39.9951336],[116.3013757,39.9950742],[116.3013667,39.9949968],[116.301336,39.9948738],[116.3012981,39.9948046],[116.3012728,39.9947687],[116.3012313,39.9947535],[116.3012046,39.9947506],[116.301188,39.9947593]]]},"properties":{"layer":"water","name_zh":"","name_en":""}},{"type":"Feature","geometry":{"type":"Polygon","coordinates":[[[116.3087172,39.9836559],[116.3088115,39.9835651],[116.3089181,39.9835204],[116.3090368,39.9835422],[116.3091203,39.9836074],[116.3091196,39.9836824],[116.3088764,39.9837127],[116.3087172,39.9836559]]]},"properties":{"layer":"water","name_zh":"","name_en":""}},{"type":"Feature","geometry":{"type":"Polygon","coordinates":[[[116.309278,39.9983977],[116.3092791,39.9983241],[116.3095153,39.9983275],[116.3110936,39.9983765],[116.3113121,39.9984027],[116.3114137,39.9984645],[116.311396,39.9984966],[116.3112294,39.9984864],[116.3111764,39.9984628],[116.3110682,39.9984365],[116.3106709,39.9984179],[116.3103254,39.998407],[116.3099424,39.998396],[116.3097084,39.9983833],[116.3095042,39.9983807],[116.309278,39.9983977]]]},"properties":{"layer":"water","name_zh":"","name_en":""}},{"type":"Feature","geometry":{"type":"Polygon","coordinates":[[[116.3079862,40.002608],[116.3080222,40.0026235],[116.3080309,40.0025859],[116.3080432,40.0025624],[116.3080537,40.0025114],[116.3080844,40.0024725],[116.3080835,40.0024268],[116.3080773,40.0022799],[116.3080817,40.002143],[116.3080773,40.0020705],[116.30808,40.0020168],[116.3081229,40.0019658],[116.3081422,40.0019558],[116.3082324,40.0016182],[116.3082123,40.0016014],[116.3081904,40.0015759],[116.3081965,40.001529],[116.3082044,40.0015021],[116.3082412,40.0013478],[116.3082683,40.0012726],[116.3082823,40.0012095],[116.3083095,40.0011666],[116.3083384,40.0011337],[116.3083673,40.0011116],[116.3083804,40.0010706],[116.3083988,40.0010532],[116.3084155,40.0010116],[116.3084286,40.0009418],[116.3084409,40.0009035],[116.3084619,40.0008539],[116.3084935,40.0008096],[116.308539,40.000776],[116.3085968,40.0007364],[116.3086143,40.0007197],[116.3085416,40.0007076],[116.308497,40.0007371],[116.3084426,40.0007458],[116.3084032,40.0007599],[116.3083866,40.0007962],[116.3083936,40.0008351],[116.308384,40.0008706],[116.3083559,40.0009123],[116.308355,40.000982],[116.3083428,40.0010525],[116.3083104,40.0011008],[116.3082683,40.0011364],[116.3082324,40.0011693],[116.3081211,40.001582],[116.3081728,40.0016612],[116.3081282,40.0018511],[116.308101,40.0018719],[116.30808,40.0018853],[116.3080642,40.0019296],[116.3080362,40.0019537],[116.3080029,40.001992],[116.3080029,40.0020584],[116.3079906,40.0021027],[116.3079468,40.0021484],[116.3079293,40.0021765],[116.3079267,40.0022188],[116.3079433,40.0022993],[116.3079503,40.0023517],[116.3079503,40.0024027],[116.3079748,40.0024362],[116.3080011,40.0024664],[116.3079994,40.0025033],[116.3079862,40.002608]]]},"properties":{"layer":"water","name_zh":"","name_en":""}},{"type":"Feature","geometry":{"type":"Point","coordinates":[116.3105841,39.9963638]},"properties":{"layer":"place","kind":"food","name_zh":"羊蝎子","name_en":""}},{"type":"Feature","geometry":{"type":"Point","coordinates":[116.299814,39.9858948]},"properties":{"layer":"place","kind":"service","name_zh":"中国银行","name_en":"Bank of China"}},{"type":"Feature","geometry":{"type":"Point","coordinates":[116.3079372,39.9830057]},"properties":{"layer":"place","kind":"food","name_zh":"Peet's Coffee","name_en":""}},{"type":"Feature","geometry":{"type":"Point","coordinates":[116.3072893,39.9967281]},"properties":{"layer":"place","kind":"stay","name_zh":"北大博雅国际酒店","name_en":"The Lakeview Hotel"}},{"type":"Feature","geometry":{"type":"Point","coordinates":[116.3018627,39.986699]},"properties":{"layer":"place","kind":"food","name_zh":"泊星地咖啡馆","name_en":"Paradiso Coffee"}},{"type":"Feature","geometry":{"type":"Point","coordinates":[116.303519,39.9832782]},"properties":{"layer":"place","kind":"service","name_zh":"中国银行","name_en":"Bank of China"}},{"type":"Feature","geometry":{"type":"Point","coordinates":[116.2989307,39.9852817]},"properties":{"layer":"place","kind":"service","name_zh":"中国工商银行","name_en":"Industrial and Commercial Bank of China"}},{"type":"Feature","geometry":{"type":"Point","coordinates":[116.3101359,39.9956457]},"properties":{"layer":"place","kind":"building","name_zh":"北大燕东宾馆","name_en":""}},{"type":"Feature","geometry":{"type":"Point","coordinates":[116.3005337,39.9831567]},"properties":{"layer":"place","kind":"building","name_zh":"昊海楼","name_en":""}},{"type":"Feature","geometry":{"type":"Point","coordinates":[116.3115745,39.9882992]},"properties":{"layer":"place","kind":"stay","name_zh":"北京大学中关新园","name_en":"Zhongguanyuan Global Village Peking University"}},{"type":"Feature","geometry":{"type":"Point","coordinates":[116.3012496,39.98306]},"properties":{"layer":"place","kind":"service","name_zh":"上海银行","name_en":"Bank of Shanghai"}},{"type":"Feature","geometry":{"type":"Point","coordinates":[116.3103974,39.9903465]},"properties":{"layer":"place","kind":"service","name_zh":"北京银行","name_en":"Bank of Beijing"}},{"type":"Feature","geometry":{"type":"Point","coordinates":[116.3104704,39.9856178]},"properties":{"layer":"place","kind":"food","name_zh":"一品生煎","name_en":""}},{"type":"Feature","geometry":{"type":"Point","coordinates":[116.3103647,39.9898344]},"properties":{"layer":"place","kind":"service","name_zh":"中国民生银行","name_en":"China Minsheng Bank"}},{"type":"Feature","geometry":{"type":"Point","coordinates":[116.3056898,39.9831183]},"properties":{"layer":"place","kind":"service","name_zh":"招商银行","name_en":"China Merchants Bank"}},{"type":"Feature","geometry":{"type":"Point","coordinates":[116.2997367,39.9860987]},"properties":{"layer":"place","kind":"food","name_zh":"何贤记","name_en":""}},{"type":"Feature","geometry":{"type":"Point","coordinates":[116.3008058,39.9860838]},"properties":{"layer":"place","kind":"service","name_zh":"北京大学邮政所","name_en":"Peking University Post Office"}},{"type":"Feature","geometry":{"type":"Point","coordinates":[116.3002477,39.9881291]},"properties":{"layer":"place","kind":"service","name_zh":"中国农业银行","name_en":"Agricultural Bank of China"}},{"type":"Feature","geometry":{"type":"Point","coordinates":[116.3068889,39.9849989]},"properties":{"layer":"place","kind":"food","name_zh":"江边码头巫山烤全鱼","name_en":""}},{"type":"Feature","geometry":{"type":"Point","coordinates":[116.3054099,39.983284]},"properties":{"layer":"place","kind":"service","name_zh":"华夏银行","name_en":"Huaxia Bank"}},{"type":"Feature","geometry":{"type":"Point","coordinates":[116.3042962,39.9926155]},"properties":{"layer":"place","kind":"landmark","name_zh":"埃德加·斯诺之墓","name_en":"Tomb of Mr. Edgar Snow"}},{"type":"Feature","geometry":{"type":"Point","coordinates":[116.3081571,39.9954492]},"properties":{"layer":"place","kind":"food","name_zh":"成府园食堂","name_en":""}},{"type":"Feature","geometry":{"type":"Point","coordinates":[116.2990263,39.9925623]},"properties":{"layer":"place","kind":"landmark","name_zh":"葛利普教授之墓","name_en":""}},{"type":"Feature","geometry":{"type":"Point","coordinates":[116.2991829,39.9923831]},"properties":{"layer":"place","kind":"landmark","name_zh":"西南联大纪念碑","name_en":""}},{"type":"Feature","geometry":{"type":"Point","coordinates":[116.3027596,39.9833085]},"properties":{"layer":"place","kind":"landmark","name_zh":"中国化工博物馆","name_en":""}},{"type":"Feature","geometry":{"type":"Point","coordinates":[116.3020809,39.9909158]},"properties":{"layer":"place","kind":"landmark","name_zh":"北京大学烈士纪念碑","name_en":""}},{"type":"Feature","geometry":{"type":"Point","coordinates":[116.2961705,39.9879986]},"properties":{"layer":"place","kind":"food","name_zh":"鹤一烤肉（中关村店）","name_en":""}},{"type":"Feature","geometry":{"type":"Point","coordinates":[116.2984207,39.9956664]},"properties":{"layer":"place","kind":"landmark","name_zh":"乾隆半月台诗碑","name_en":""}},{"type":"Feature","geometry":{"type":"Point","coordinates":[116.3009569,39.995206]},"properties":{"layer":"place","kind":"landmark","name_zh":"“柳浪闻莺“石坊楣","name_en":""}},{"type":"Feature","geometry":{"type":"Point","coordinates":[116.3036026,39.9959694]},"properties":{"layer":"place","kind":"landmark","name_zh":"“断桥残雪“石坊楣","name_en":""}},{"type":"Feature","geometry":{"type":"Point","coordinates":[116.2986707,39.9925523]},"properties":{"layer":"place","kind":"landmark","name_zh":"大水法石构件","name_en":""}},{"type":"Feature","geometry":{"type":"Point","coordinates":[116.3017824,39.99196]},"properties":{"layer":"place","kind":"landmark","name_zh":"茜园梅石碑","name_en":""}},{"type":"Feature","geometry":{"type":"Point","coordinates":[116.3049201,39.9913184]},"properties":{"layer":"place","kind":"landmark","name_zh":"“振兴中华”石碑","name_en":""}},{"type":"Feature","geometry":{"type":"Point","coordinates":[116.301995,39.9929598]},"properties":{"layer":"place","kind":"landmark","name_zh":"石五供","name_en":""}},{"type":"Feature","geometry":{"type":"Point","coordinates":[116.3037793,39.9936189]},"properties":{"layer":"place","kind":"landmark","name_zh":"“燕宫太液”石刻","name_en":""}},{"type":"Feature","geometry":{"type":"Point","coordinates":[116.3029433,39.9934244]},"properties":{"layer":"place","kind":"landmark","name_zh":"“挹翠”石刻","name_en":""}},{"type":"Feature","geometry":{"type":"Point","coordinates":[116.3017654,39.9933445]},"properties":{"layer":"place","kind":"landmark","name_zh":"未名湖石","name_en":""}},{"type":"Feature","geometry":{"type":"Point","coordinates":[116.3020325,39.9929295]},"properties":{"layer":"place","kind":"landmark","name_zh":"植树碑","name_en":""}},{"type":"Feature","geometry":{"type":"Point","coordinates":[116.3039782,39.9944889]},"properties":{"layer":"place","kind":"landmark","name_zh":"乾隆石屏风","name_en":""}},{"type":"Feature","geometry":{"type":"Point","coordinates":[116.3076058,39.9883858]},"properties":{"layer":"place","kind":"food","name_zh":"3W咖啡餐吧（北京大学店）","name_en":""}},{"type":"Feature","geometry":{"type":"Point","coordinates":[116.29986,39.98541]},"properties":{"layer":"place","kind":"stay","name_zh":"资源宾馆","name_en":"Resource Hotel"}},{"type":"Feature","geometry":{"type":"Point","coordinates":[116.298847,39.9863079]},"properties":{"layer":"place","kind":"food","name_zh":"好适口小小鲜肉包","name_en":""}},{"type":"Feature","geometry":{"type":"Point","coordinates":[116.3020065,39.9864582]},"properties":{"layer":"place","kind":"food","name_zh":"松林包子铺","name_en":""}},{"type":"Feature","geometry":{"type":"Point","coordinates":[116.3006271,39.9830092]},"properties":{"layer":"place","kind":"food","name_zh":"咖啡书屋","name_en":""}},{"type":"Feature","geometry":{"type":"Point","coordinates":[116.3066749,39.9910999]},"properties":{"layer":"place","kind":"food","name_zh":"瑞幸咖啡","name_en":"Luckin Coffee"}},{"type":"Feature","geometry":{"type":"Point","coordinates":[116.3008511,39.9863492]},"properties":{"layer":"place","kind":"service","name_zh":"中国工商银行","name_en":"Industrial and Commercial Bank of China"}},{"type":"Feature","geometry":{"type":"Point","coordinates":[116.3006549,39.9984212]},"properties":{"layer":"place","kind":"food","name_zh":"花家怡园","name_en":""}},{"type":"Feature","geometry":{"type":"Point","coordinates":[116.3092299,39.986597]},"properties":{"layer":"place","kind":"police","name_zh":"燕园派出所","name_en":""}},{"type":"Feature","geometry":{"type":"Point","coordinates":[116.3045224,40.0009124]},"properties":{"layer":"place","kind":"landmark","name_zh":"残桥","name_en":""}},{"type":"Feature","geometry":{"type":"Point","coordinates":[116.3039286,40.0010777]},"properties":{"layer":"place","kind":"landmark","name_zh":"流散文物展示区","name_en":""}},{"type":"Feature","geometry":{"type":"Point","coordinates":[116.3089936,39.993896]},"properties":{"layer":"place","kind":"landmark","name_zh":"成府","name_en":""}},{"type":"Feature","geometry":{"type":"Point","coordinates":[116.3110123,39.9924196]},"properties":{"layer":"place","kind":"landmark","name_zh":"刚秉庙","name_en":""}},{"type":"Feature","geometry":{"type":"Point","coordinates":[116.3115873,39.9952585]},"properties":{"layer":"place","kind":"landmark","name_zh":"东大地","name_en":""}},{"type":"Feature","geometry":{"type":"Point","coordinates":[116.3086313,39.9949865]},"properties":{"layer":"place","kind":"food","name_zh":"龙可立咖","name_en":""}},{"type":"Feature","geometry":{"type":"Point","coordinates":[116.3090668,39.9873556]},"properties":{"layer":"place","kind":"sport","name_zh":"邱德拔体育馆","name_en":"Khoo Teck Puat Gymnasium"}},{"type":"Feature","geometry":{"type":"Point","coordinates":[116.2984048,39.9829776]},"properties":{"layer":"place","kind":"building","name_zh":"左岸工社","name_en":""}},{"type":"Feature","geometry":{"type":"Point","coordinates":[116.30658,39.991911]},"properties":{"layer":"place","kind":"building","name_zh":"遥感楼","name_en":"Remote Sensing Building"}},{"type":"Feature","geometry":{"type":"Point","coordinates":[116.302769,39.9830925]},"properties":{"layer":"place","kind":"building","name_zh":"中国化工集团大厦","name_en":""}},{"type":"Feature","geometry":{"type":"Point","coordinates":[116.3083513,39.982559]},"properties":{"layer":"place","kind":"building","name_zh":"鼎好","name_en":""}},{"type":"Feature","geometry":{"type":"Point","coordinates":[116.3084858,39.9944561]},"properties":{"layer":"place","kind":"building","name_zh":"政府管理学院（廖凯原楼）","name_en":"School of Government (Leo KoGuan Building)"}},{"type":"Feature","geometry":{"type":"Point","coordinates":[116.2983584,39.9920095]},"properties":{"layer":"place","kind":"landmark","name_zh":"恩佑寺山门","name_en":""}},{"type":"Feature","geometry":{"type":"Point","coordinates":[116.3074711,39.9989977]},"properties":{"layer":"place","kind":"building","name_zh":"圆明园南门外","name_en":""}},{"type":"Feature","geometry":{"type":"Point","coordinates":[116.3044949,39.9886652]},"properties":{"layer":"place","kind":"building","name_zh":"百周年纪念讲堂","name_en":"University Hall (Performance Hall)"}},{"type":"Feature","geometry":{"type":"Point","coordinates":[116.3007997,39.9870839]},"properties":{"layer":"place","kind":"food","name_zh":"艺园餐厅","name_en":"Yi Yuan Dining Hall"}},{"type":"Feature","geometry":{"type":"Point","coordinates":[116.2963162,39.985973]},"properties":{"layer":"place","kind":"building","name_zh":"海淀游泳馆","name_en":""}},{"type":"Feature","geometry":{"type":"Point","coordinates":[116.3032206,39.99978]},"properties":{"layer":"place","kind":"landmark","name_zh":"最上楼","name_en":""}},{"type":"Feature","geometry":{"type":"Point","coordinates":[116.3033332,39.9992975]},"properties":{"layer":"place","kind":"landmark","name_zh":"三圣殿","name_en":""}},{"type":"Feature","geometry":{"type":"Point","coordinates":[116.3046578,40.0001124]},"properties":{"layer":"place","kind":"building","name_zh":"鉴碧亭","name_en":""}},{"type":"Feature","geometry":{"type":"Point","coordinates":[116.3032817,39.9995778]},"properties":{"layer":"place","kind":"building","name_zh":"文殊亭","name_en":""}},{"type":"Feature","geometry":{"type":"Point","coordinates":[116.2975065,39.9846883]},"properties":{"layer":"place","kind":"building","name_zh":"中关村国际创新大厦","name_en":""}},{"type":"Feature","geometry":{"type":"Point","coordinates":[116.310548,39.9970182]},"properties":{"layer":"place","kind":"building","name_zh":"西44楼","name_en":""}},{"type":"Feature","geometry":{"type":"Point","coordinates":[116.3124445,39.9973651]},"properties":{"layer":"place","kind":"building","name_zh":"16公寓","name_en":""}},{"type":"Feature","geometry":{"type":"Point","coordinates":[116.3113532,39.9969753]},"properties":{"layer":"place","kind":"building","name_zh":"19公寓","name_en":""}},{"type":"Feature","geometry":{"type":"Point","coordinates":[116.3113384,39.9976801]},"properties":{"layer":"place","kind":"building","name_zh":"17公寓","name_en":""}},{"type":"Feature","geometry":{"type":"Point","coordinates":[116.3113431,39.9973138]},"properties":{"layer":"place","kind":"building","name_zh":"18公寓","name_en":""}},{"type":"Feature","geometry":{"type":"Point","coordinates":[116.3105281,39.9973515]},"properties":{"layer":"place","kind":"building","name_zh":"西43楼","name_en":""}},{"type":"Feature","geometry":{"type":"Point","coordinates":[116.3121797,39.9970091]},"properties":{"layer":"place","kind":"building","name_zh":"西8楼","name_en":""}},{"type":"Feature","geometry":{"type":"Point","coordinates":[116.3104534,39.9976731]},"properties":{"layer":"place","kind":"building","name_zh":"西42楼","name_en":""}},{"type":"Feature","geometry":{"type":"Point","coordinates":[116.3103844,39.9979951]},"properties":{"layer":"place","kind":"building","name_zh":"西41楼","name_en":""}},{"type":"Feature","geometry":{"type":"Point","coordinates":[116.3113406,39.9980528]},"properties":{"layer":"place","kind":"building","name_zh":"西1楼","name_en":""}},{"type":"Feature","geometry":{"type":"Point","coordinates":[116.3095508,39.9979769]},"properties":{"layer":"place","kind":"building","name_zh":"西45楼","name_en":""}},{"type":"Feature","geometry":{"type":"Point","coordinates":[116.304338,39.9915474]},"properties":{"layer":"place","kind":"building","name_zh":"第一教学楼","name_en":"Teaching Building No.1"}},{"type":"Feature","geometry":{"type":"Point","coordinates":[116.3062494,39.9938574]},"properties":{"layer":"place","kind":"sport","name_zh":"东操场","name_en":"East Playground"}},{"type":"Feature","geometry":{"type":"Point","coordinates":[116.3011199,39.9894355]},"properties":{"layer":"place","kind":"sport","name_zh":"二体网球场","name_en":"Tennis Court"}},{"type":"Feature","geometry":{"type":"Point","coordinates":[116.3029708,39.9894402]},"properties":{"layer":"place","kind":"sport","name_zh":"二体篮球场","name_en":"Basketball Court"}},{"type":"Feature","geometry":{"type":"Point","coordinates":[116.3021076,39.9894768]},"properties":{"layer":"place","kind":"building","name_zh":"第二体育馆","name_en":"Gymnasium No. 2"}},{"type":"Feature","geometry":{"type":"Point","coordinates":[116.2986002,39.9932819]},"properties":{"layer":"place","kind":"building","name_zh":"北大西门","name_en":""}},{"type":"Feature","geometry":{"type":"Point","coordinates":[116.2998362,39.9928866]},"properties":{"layer":"place","kind":"building","name_zh":"化学北楼","name_en":"North Chemistry Building"}},{"type":"Feature","geometry":{"type":"Point","coordinates":[116.2998453,39.9923222]},"properties":{"layer":"place","kind":"building","name_zh":"化学南楼","name_en":"South Chemistry Building"}},{"type":"Feature","geometry":{"type":"Point","coordinates":[116.3000759,39.991987]},"properties":{"layer":"place","kind":"landmark","name_zh":"校史馆","name_en":"Museum of University History"}},{"type":"Feature","geometry":{"type":"Point","coordinates":[116.3004097,39.9925967]},"properties":{"layer":"place","kind":"building","name_zh":"档案馆","name_en":"The Archived"}},{"type":"Feature","geometry":{"type":"Point","coordinates":[116.3130422,39.990251]},"properties":{"layer":"place","kind":"building","name_zh":"42","name_en":"42"}},{"type":"Feature","geometry":{"type":"Point","coordinates":[116.3130856,39.9892668]},"properties":{"layer":"place","kind":"building","name_zh":"45","name_en":"45"}},{"type":"Feature","geometry":{"type":"Point","coordinates":[116.3130742,39.9895914]},"properties":{"layer":"place","kind":"building","name_zh":"44","name_en":"44"}},{"type":"Feature","geometry":{"type":"Point","coordinates":[116.3130141,39.9905784]},"properties":{"layer":"place","kind":"building","name_zh":"41","name_en":"41"}},{"type":"Feature","geometry":{"type":"Point","coordinates":[116.3130804,39.989936]},"properties":{"layer":"place","kind":"building","name_zh":"43","name_en":"43"}},{"type":"Feature","geometry":{"type":"Point","coordinates":[116.3039436,39.9831435]},"properties":{"layer":"place","kind":"building","name_zh":"理想国际大厦","name_en":""}},{"type":"Feature","geometry":{"type":"Point","coordinates":[116.3057138,39.9832082]},"properties":{"layer":"place","kind":"building","name_zh":"辉煌时代大厦","name_en":""}},{"type":"Feature","geometry":{"type":"Point","coordinates":[116.3071372,39.9832122]},"properties":{"layer":"place","kind":"building","name_zh":"方正国际大厦","name_en":""}},{"type":"Feature","geometry":{"type":"Point","coordinates":[116.296922,39.9869396]},"properties":{"layer":"place","kind":"sport","name_zh":"海淀体育场","name_en":""}},{"type":"Feature","geometry":{"type":"Point","coordinates":[116.2961044,39.9869707]},"properties":{"layer":"place","kind":"building","name_zh":"星海体育场","name_en":"Xinghai Sports Club"}},{"type":"Feature","geometry":{"type":"Point","coordinates":[116.3000244,39.9857715]},"properties":{"layer":"place","kind":"building","name_zh":"资源宾馆","name_en":"Resource Hotel"}},{"type":"Feature","geometry":{"type":"Point","coordinates":[116.302082,39.985624]},"properties":{"layer":"place","kind":"building","name_zh":"38、39楼","name_en":""}},{"type":"Feature","geometry":{"type":"Point","coordinates":[116.3011069,39.9855969]},"properties":{"layer":"place","kind":"building","name_zh":"40、41、42楼","name_en":""}},{"type":"Feature","geometry":{"type":"Point","coordinates":[116.3030074,39.9856415]},"properties":{"layer":"place","kind":"building","name_zh":"36、37楼","name_en":""}},{"type":"Feature","geometry":{"type":"Point","coordinates":[116.3039117,39.9856841]},"properties":{"layer":"place","kind":"building","name_zh":"34A、34B楼","name_en":""}},{"type":"Feature","geometry":{"type":"Point","coordinates":[116.3029178,39.9863829]},"properties":{"layer":"place","kind":"building","name_zh":"35楼","name_en":""}},{"type":"Feature","geometry":{"type":"Point","coordinates":[116.3038715,39.9864081]},"properties":{"layer":"place","kind":"building","name_zh":"32楼","name_en":""}},{"type":"Feature","geometry":{"type":"Point","coordinates":[116.3007851,39.9866933]},"properties":{"layer":"place","kind":"building","name_zh":"44楼","name_en":""}},{"type":"Feature","geometry":{"type":"Point","coordinates":[116.3090304,39.9860357]},"properties":{"layer":"place","kind":"building","name_zh":"王克桢楼","name_en":"Wang Ko Chiang Building"}},{"type":"Feature","geometry":{"type":"Point","coordinates":[116.3080649,39.9880459]},"properties":{"layer":"place","kind":"building","name_zh":"第四教学楼","name_en":"Teaching Building No. 4"}},{"type":"Feature","geometry":{"type":"Point","coordinates":[116.3077812,39.9877714]},"properties":{"layer":"place","kind":"building","name_zh":"第三教学楼（刘卿楼）","name_en":"Teaching Building No. 3 (Lau Hing Building)"}},{"type":"Feature","geometry":{"type":"Point","coordinates":[116.3074195,39.9881902]},"properties":{"layer":"place","kind":"building","name_zh":"第二教学楼（李兆基楼）","name_en":"Teaching Building No. 2 (Lee Shan Kee Building)"}},{"type":"Feature","geometry":{"type":"Point","coordinates":[116.3057848,39.992643]},"properties":{"layer":"place","kind":"landmark","name_zh":"博雅塔","name_en":"Boya Tower"}},{"type":"Feature","geometry":{"type":"Point","coordinates":[116.3078234,39.9941653]},"properties":{"layer":"place","kind":"building","name_zh":"法学院（陈明楼）","name_en":"Law School (Chen Ming Building)"}},{"type":"Feature","geometry":{"type":"Point","coordinates":[116.3071901,39.9942573]},"properties":{"layer":"place","kind":"building","name_zh":"光华管理学院","name_en":"Guanghua School of Management"}},{"type":"Feature","geometry":{"type":"Point","coordinates":[116.3077332,39.9947561]},"properties":{"layer":"place","kind":"building","name_zh":"光华管理学院2号楼","name_en":"Bldg No. 2, Guanghua School of Management"}},{"type":"Feature","geometry":{"type":"Point","coordinates":[116.3075123,39.9931987]},"properties":{"layer":"place","kind":"building","name_zh":"法学院（凯原楼）","name_en":"Law School (Leo KoGuan Building)"}},{"type":"Feature","geometry":{"type":"Point","coordinates":[116.298481,39.9851372]},"properties":{"layer":"place","kind":"building","name_zh":"海淀新技术大厦","name_en":""}},{"type":"Feature","geometry":{"type":"Point","coordinates":[116.3001022,39.9833859]},"properties":{"layer":"place","kind":"building","name_zh":"中国书店","name_en":"China Book Shop"}},{"type":"Feature","geometry":{"type":"Point","coordinates":[116.2998331,39.9937433]},"properties":{"layer":"place","kind":"building","name_zh":"外文楼","name_en":"Foreign Languages Building"}},{"type":"Feature","geometry":{"type":"Point","coordinates":[116.3004181,39.9933233]},"properties":{"layer":"place","kind":"building","name_zh":"办公楼（贝公楼）","name_en":"Administrative Building"}},{"type":"Feature","geometry":{"type":"Point","coordinates":[116.299811,39.9944272]},"properties":{"layer":"place","kind":"landmark","name_zh":"赛克勒考古与艺术博物馆","name_en":"Arthur M. Sackler Museum of Art and Arhaeology"}},{"type":"Feature","geometry":{"type":"Point","coordinates":[116.3003963,39.9940445]},"properties":{"layer":"place","kind":"building","name_zh":"民主楼","name_en":"Democracy Building"}},{"type":"Feature","geometry":{"type":"Point","coordinates":[116.3009436,39.994095]},"properties":{"layer":"place","kind":"building","name_zh":"德斋","name_en":"De Hall"}},{"type":"Feature","geometry":{"type":"Point","coordinates":[116.3016128,39.9941051]},"properties":{"layer":"place","kind":"building","name_zh":"才斋","name_en":"Cai Hall"}},{"type":"Feature","geometry":{"type":"Point","coordinates":[116.3012778,39.9943096]},"properties":{"layer":"place","kind":"building","name_zh":"审计室","name_en":""}},{"type":"Feature","geometry":{"type":"Point","coordinates":[116.3022217,39.9941425]},"properties":{"layer":"place","kind":"building","name_zh":"均斋","name_en":"Jun Hall"}},{"type":"Feature","geometry":{"type":"Point","coordinates":[116.3028987,39.9941501]},"properties":{"layer":"place","kind":"building","name_zh":"备斋","name_en":"Bei Hall"}},{"type":"Feature","geometry":{"type":"Point","coordinates":[116.3025611,39.9943356]},"properties":{"layer":"place","kind":"building","name_zh":"人事部","name_en":""}},{"type":"Feature","geometry":{"type":"Point","coordinates":[116.3054533,39.9939921]},"properties":{"layer":"place","kind":"building","name_zh":"第一体育馆","name_en":"Gymnasium No. 1"}},{"type":"Feature","geometry":{"type":"Point","coordinates":[116.2993052,39.9898967]},"properties":{"layer":"place","kind":"building","name_zh":"勺园4号楼","name_en":""}},{"type":"Feature","geometry":{"type":"Point","coordinates":[116.299285,39.9908568]},"properties":{"layer":"place","kind":"building","name_zh":"勺园5号楼","name_en":""}},{"type":"Feature","geometry":{"type":"Point","coordinates":[116.3007181,39.9904487]},"properties":{"layer":"place","kind":"building","name_zh":"北京大学国际关系学院","name_en":"School of International Studies, Peking University"}},{"type":"Feature","geometry":{"type":"Point","coordinates":[116.2998432,39.9896124]},"properties":{"layer":"place","kind":"building","name_zh":"勺园6号楼","name_en":""}},{"type":"Feature","geometry":{"type":"Point","coordinates":[116.3000342,39.9890991]},"properties":{"layer":"place","kind":"stay","name_zh":"勺园7号楼","name_en":""}},{"type":"Feature","geometry":{"type":"Point","coordinates":[116.29951,39.9893184]},"properties":{"layer":"place","kind":"building","name_zh":"勺园8号楼","name_en":""}},{"type":"Feature","geometry":{"type":"Point","coordinates":[116.2994532,39.988816]},"properties":{"layer":"place","kind":"building","name_zh":"勺园9号楼","name_en":""}},{"type":"Feature","geometry":{"type":"Point","coordinates":[116.3008211,39.9876407]},"properties":{"layer":"place","kind":"food","name_zh":"学五食堂","name_en":"Student Dining Hall No. 5 (The Hollywood Café)"}},{"type":"Feature","geometry":{"type":"Point","coordinates":[116.3025991,39.9870657]},"properties":{"layer":"place","kind":"building","name_zh":"31楼","name_en":""}},{"type":"Feature","geometry":{"type":"Point","coordinates":[116.3032963,39.9873483]},"properties":{"layer":"place","kind":"building","name_zh":"29楼","name_en":""}},{"type":"Feature","geometry":{"type":"Point","coordinates":[116.3033239,39.9868204]},"properties":{"layer":"place","kind":"building","name_zh":"30楼","name_en":""}},{"type":"Feature","geometry":{"type":"Point","coordinates":[116.3040369,39.9871131]},"properties":{"layer":"place","kind":"building","name_zh":"28楼","name_en":""}},{"type":"Feature","geometry":{"type":"Point","coordinates":[116.3061608,39.9875179]},"properties":{"layer":"place","kind":"food","name_zh":"农园餐厅","name_en":"Nong Yuan Dining Hall"}},{"type":"Feature","geometry":{"type":"Point","coordinates":[116.3055918,39.9876671]},"properties":{"layer":"place","kind":"building","name_zh":"教育学院","name_en":"Graduate School of Education"}},{"type":"Feature","geometry":{"type":"Point","coordinates":[116.3056961,39.9866761]},"properties":{"layer":"place","kind":"building","name_zh":"对外汉语教育学院及信息管理系（方李邦琴楼）","name_en":"School of Chinese as a Second Language / Department of Information Management"}},{"type":"Feature","geometry":{"type":"Point","coordinates":[116.3057661,39.9857759]},"properties":{"layer":"place","kind":"building","name_zh":"新闻与传播学院（蒙民伟楼）","name_en":"School of Journalism and Communication"}},{"type":"Feature","geometry":{"type":"Point","coordinates":[116.307221,39.9854477]},"properties":{"layer":"place","kind":"building","name_zh":"资源楼","name_en":"Resources Building"}},{"type":"Feature","geometry":{"type":"Point","coordinates":[116.3062891,39.9862539]},"properties":{"layer":"place","kind":"sport","name_zh":"五四体育中心","name_en":"May 4th Sports Center"}},{"type":"Feature","geometry":{"type":"Point","coordinates":[116.2977733,39.9885156]},"properties":{"layer":"place","kind":"building","name_zh":"海淀体育馆","name_en":""}},{"type":"Feature","geometry":{"type":"Point","coordinates":[116.2984884,39.9860706]},"properties":{"layer":"place","kind":"building","name_zh":"未来科技大厦","name_en":""}},{"type":"Feature","geometry":{"type":"Point","coordinates":[116.3104501,39.9898275]},"properties":{"layer":"place","kind":"building","name_zh":"方正大厦","name_en":"Bank of Beijing"}},{"type":"Feature","geometry":{"type":"Point","coordinates":[116.2998045,39.9881963]},"properties":{"layer":"place","kind":"building","name_zh":"45甲楼","name_en":""}},{"type":"Feature","geometry":{"type":"Point","coordinates":[116.2998128,39.9884692]},"properties":{"layer":"place","kind":"building","name_zh":"45乙楼","name_en":""}},{"type":"Feature","geometry":{"type":"Point","coordinates":[116.2998363,39.9878241]},"properties":{"layer":"place","kind":"building","name_zh":"45楼","name_en":""}},{"type":"Feature","geometry":{"type":"Point","coordinates":[116.3035235,39.9933968]},"properties":{"layer":"place","kind":"building","name_zh":"岛厅","name_en":""}},{"type":"Feature","geometry":{"type":"Point","coordinates":[116.3014366,39.9917784]},"properties":{"layer":"place","kind":"building","name_zh":"北阁","name_en":"North Pavilion"}},{"type":"Feature","geometry":{"type":"Point","coordinates":[116.3014498,39.9914465]},"properties":{"layer":"place","kind":"building","name_zh":"南阁","name_en":"South Pavilion"}},{"type":"Feature","geometry":{"type":"Point","coordinates":[116.3030449,39.9922644]},"properties":{"layer":"place","kind":"building","name_zh":"临湖轩","name_en":""}},{"type":"Feature","geometry":{"type":"Point","coordinates":[116.3026178,39.9916106]},"properties":{"layer":"place","kind":"building","name_zh":"俄文楼","name_en":"Russian Building"}},{"type":"Feature","geometry":{"type":"Point","coordinates":[116.3042939,39.9896315]},"properties":{"layer":"place","kind":"building","name_zh":"哲学楼","name_en":"Philosophy Building"}},{"type":"Feature","geometry":{"type":"Point","coordinates":[116.3014128,39.9908424]},"properties":{"layer":"place","kind":"building","name_zh":"一院","name_en":"Courtyard No. 1"}},{"type":"Feature","geometry":{"type":"Point","coordinates":[116.3014259,39.9903682]},"properties":{"layer":"place","kind":"building","name_zh":"二院","name_en":"Courtyard No. 2"}},{"type":"Feature","geometry":{"type":"Point","coordinates":[116.3014386,39.9899046]},"properties":{"layer":"place","kind":"building","name_zh":"三院","name_en":"Courtyard No. 3"}},{"type":"Feature","geometry":{"type":"Point","coordinates":[116.3027534,39.9899166]},"properties":{"layer":"place","kind":"building","name_zh":"四院","name_en":"Courtyard No. 4"}},{"type":"Feature","geometry":{"type":"Point","coordinates":[116.3027429,39.9903879]},"properties":{"layer":"place","kind":"building","name_zh":"五院","name_en":"Courtyard No. 5"}},{"type":"Feature","geometry":{"type":"Point","coordinates":[116.3027327,39.990865]},"properties":{"layer":"place","kind":"building","name_zh":"六院","name_en":"Courtyard No. 6"}},{"type":"Feature","geometry":{"type":"Point","coordinates":[116.3115769,39.9894376]},"properties":{"layer":"place","kind":"building","name_zh":"北京大学化学学院A区","name_en":"Area A, College of Chemistry and Molecular Engineering, Peking University"}},{"type":"Feature","geometry":{"type":"Point","coordinates":[116.3113276,39.9898246]},"properties":{"layer":"place","kind":"building","name_zh":"北京大学化学学院B区","name_en":"Area B, College of Chemistry and Molecular Engineering, Peking University"}},{"type":"Feature","geometry":{"type":"Point","coordinates":[116.3117151,39.9901507]},"properties":{"layer":"place","kind":"building","name_zh":"北京大学化学学院C区","name_en":"Area C, College of Chemistry and Molecular Engineering, Peking University"}},{"type":"Feature","geometry":{"type":"Point","coordinates":[116.311425,39.9904472]},"properties":{"layer":"place","kind":"building","name_zh":"北京大学化学学院D区","name_en":"Area D, College of Chemistry and Molecular Engineering, Peking University"}},{"type":"Feature","geometry":{"type":"Point","coordinates":[116.3052488,39.994574]},"properties":{"layer":"place","kind":"sport","name_zh":"一体岩壁","name_en":""}},{"type":"Feature","geometry":{"type":"Point","coordinates":[116.3013695,39.9827652]},"properties":{"layer":"place","kind":"building","name_zh":"中国技术交易大厦","name_en":""}},{"type":"Feature","geometry":{"type":"Point","coordinates":[116.3057371,39.9908947]},"properties":{"layer":"place","kind":"building","name_zh":"文史楼","name_en":"Chinese and History Building"}},{"type":"Feature","geometry":{"type":"Point","coordinates":[116.301696,39.9862586]},"properties":{"layer":"place","kind":"food","name_zh":"学一食堂","name_en":"Student Dining Hall No. 1"}},{"type":"Feature","geometry":{"type":"Point","coordinates":[116.312827,39.9913124]},"properties":{"layer":"place","kind":"building","name_zh":"北京大学出版社","name_en":"Peking University Press"}},{"type":"Feature","geometry":{"type":"Point","coordinates":[116.3127298,39.9918483]},"properties":{"layer":"place","kind":"food","name_zh":"北大青鸟总部食堂","name_en":""}},{"type":"Feature","geometry":{"type":"Point","coordinates":[116.3129744,39.9924226]},"properties":{"layer":"place","kind":"building","name_zh":"动力中心","name_en":"Center for Electricity, Water and Heat Services"}},{"type":"Feature","geometry":{"type":"Point","coordinates":[116.3123241,39.9948068]},"properties":{"layer":"place","kind":"building","name_zh":"北京大学燕东园30号楼","name_en":""}},{"type":"Feature","geometry":{"type":"Point","coordinates":[116.3103879,39.9944817]},"properties":{"layer":"place","kind":"building","name_zh":"北京大学燕东园34号楼","name_en":""}},{"type":"Feature","geometry":{"type":"Point","coordinates":[116.3104027,39.9941474]},"properties":{"layer":"place","kind":"building","name_zh":"北京大学-战略研究所","name_en":""}},{"type":"Feature","geometry":{"type":"Point","coordinates":[116.3107888,39.9941387]},"properties":{"layer":"place","kind":"building","name_zh":"北京大学-燕东园小楼32号楼","name_en":""}},{"type":"Feature","geometry":{"type":"Point","coordinates":[116.3111158,39.9941004]},"properties":{"layer":"place","kind":"building","name_zh":"北京大学-燕东园小楼31号楼","name_en":""}},{"type":"Feature","geometry":{"type":"Point","coordinates":[116.3020062,39.9864764]},"properties":{"layer":"place","kind":"food","name_zh":"松林餐厅","name_en":"Song Lin Restaurant"}},{"type":"Feature","geometry":{"type":"Point","coordinates":[116.3017449,39.987022]},"properties":{"layer":"place","kind":"food","name_zh":"餐饮综合楼（家园食堂）","name_en":"Cafeteria Building"}},{"type":"Feature","geometry":{"type":"Point","coordinates":[116.300752,39.9862036]},"properties":{"layer":"place","kind":"building","name_zh":"43楼","name_en":"Building No. 43"}},{"type":"Feature","geometry":{"type":"Point","coordinates":[116.3071082,39.9902645]},"properties":{"layer":"place","kind":"building","name_zh":"理科教学楼（黄廷方楼）","name_en":"Science Teaching Building (Ng Teng Fong Building)"}},{"type":"Feature","geometry":{"type":"Point","coordinates":[116.307782,39.9894457]},"properties":{"layer":"place","kind":"building","name_zh":"英杰交流中心","name_en":"Ho Ying Chie Overseas Exchange Center"}},{"type":"Feature","geometry":{"type":"Point","coordinates":[116.305742,39.9904362]},"properties":{"layer":"place","kind":"building","name_zh":"地学楼","name_en":"Geology Building"}},{"type":"Feature","geometry":{"type":"Point","coordinates":[116.305763,39.9900011]},"properties":{"layer":"place","kind":"building","name_zh":"老化学楼","name_en":"Old Chemistry Building"}},{"type":"Feature","geometry":{"type":"Point","coordinates":[116.305877,39.9885616]},"properties":{"layer":"place","kind":"building","name_zh":"电化教学楼楼（智华楼）","name_en":"Audio-Visual Teaching Building (Zhihua Building)"}},{"type":"Feature","geometry":{"type":"Point","coordinates":[116.3056782,39.9912681]},"properties":{"layer":"place","kind":"building","name_zh":"老生物楼","name_en":"Old Biology Building"}},{"type":"Feature","geometry":{"type":"Point","coordinates":[116.3032082,39.9943318]},"properties":{"layer":"place","kind":"building","name_zh":"体斋","name_en":"Ti Hall"}},{"type":"Feature","geometry":{"type":"Point","coordinates":[116.2994492,39.9903939]},"properties":{"layer":"place","kind":"food","name_zh":"勺园食堂","name_en":"Shao Yuan Dining Hall"}},{"type":"Feature","geometry":{"type":"Point","coordinates":[116.3007247,39.9897559]},"properties":{"layer":"place","kind":"food","name_zh":"佟园餐厅（清真）","name_en":"Tong Yuan Halal Restaurant"}},{"type":"Feature","geometry":{"type":"Point","coordinates":[116.2999458,39.9900791]},"properties":{"layer":"place","kind":"building","name_zh":"勺园1号楼","name_en":""}},{"type":"Feature","geometry":{"type":"Point","coordinates":[116.2999053,39.9907572]},"properties":{"layer":"place","kind":"building","name_zh":"勺园3号楼","name_en":""}},{"type":"Feature","geometry":{"type":"Point","coordinates":[116.2997842,39.990414]},"properties":{"layer":"place","kind":"building","name_zh":"勺园2号楼","name_en":""}},{"type":"Feature","geometry":{"type":"Point","coordinates":[116.304791,39.987618]},"properties":{"layer":"place","kind":"building","name_zh":"新太阳学生中心（16楼-18楼）","name_en":"New Sun Student Center"}},{"type":"Feature","geometry":{"type":"Point","coordinates":[116.3041207,39.9892201]},"properties":{"layer":"place","kind":"food","name_zh":"燕南食堂","name_en":"Yan Nan Dining Hall"}},{"type":"Feature","geometry":{"type":"Point","coordinates":[116.3122843,39.9847222]},"properties":{"layer":"place","kind":"building","name_zh":"中关村25号楼","name_en":""}},{"type":"Feature","geometry":{"type":"Point","coordinates":[116.3122993,39.9851836]},"properties":{"layer":"place","kind":"building","name_zh":"中关村22号楼","name_en":""}},{"type":"Feature","geometry":{"type":"Point","coordinates":[116.3123777,39.9849327]},"properties":{"layer":"place","kind":"building","name_zh":"中关村甲25号楼","name_en":""}},{"type":"Feature","geometry":{"type":"Point","coordinates":[116.312281,39.985466]},"properties":{"layer":"place","kind":"building","name_zh":"中关村甲22号楼","name_en":""}},{"type":"Feature","geometry":{"type":"Point","coordinates":[116.3133878,39.9855274]},"properties":{"layer":"place","kind":"building","name_zh":"中关村甲21号楼","name_en":""}},{"type":"Feature","geometry":{"type":"Point","coordinates":[116.3134464,39.9852552]},"properties":{"layer":"place","kind":"building","name_zh":"中关村21号楼","name_en":""}},{"type":"Feature","geometry":{"type":"Point","coordinates":[116.3135891,39.9858189]},"properties":{"layer":"place","kind":"building","name_zh":"中关村15号楼","name_en":""}},{"type":"Feature","geometry":{"type":"Point","coordinates":[116.3120268,39.9856842]},"properties":{"layer":"place","kind":"building","name_zh":"中关村13号楼","name_en":""}},{"type":"Feature","geometry":{"type":"Point","coordinates":[116.3043707,39.9922501]},"properties":{"layer":"place","kind":"building","name_zh":"伟利楼","name_en":"Weili Building"}},{"type":"Feature","geometry":{"type":"Point","coordinates":[116.3033812,39.994511]},"properties":{"layer":"place","kind":"building","name_zh":"健斋","name_en":"Jian Hall"}},{"type":"Feature","geometry":{"type":"Point","coordinates":[116.3033797,39.9915246]},"properties":{"layer":"place","kind":"library","name_zh":"阿卜杜勒·阿齐兹国王公共图书馆北京大学分馆（古籍图书馆）","name_en":"The King Abdul Aziz Public Library PKU Branch"}},{"type":"Feature","geometry":{"type":"Point","coordinates":[116.3056137,39.9916013]},"properties":{"layer":"place","kind":"building","name_zh":"生物标本馆","name_en":"Museum of Biology"}},{"type":"Feature","geometry":{"type":"Point","coordinates":[116.2958734,39.9923383]},"properties":{"layer":"place","kind":"building","name_zh":"北大附中实验学校 阅览楼","name_en":""}},{"type":"Feature","geometry":{"type":"Point","coordinates":[116.306326,39.9922977]},"properties":{"layer":"place","kind":"building","name_zh":"方楼","name_en":"Fang Building"}},{"type":"Feature","geometry":{"type":"Point","coordinates":[116.2998559,39.9957584]},"properties":{"layer":"place","kind":"building","name_zh":"保护生物学楼","name_en":""}},{"type":"Feature","geometry":{"type":"Point","coordinates":[116.2998404,39.9955448]},"properties":{"layer":"place","kind":"building","name_zh":"保护生物学新楼","name_en":""}},{"type":"Feature","geometry":{"type":"Point","coordinates":[116.2997604,39.9952321]},"properties":{"layer":"place","kind":"building","name_zh":"生物技术楼","name_en":"Biotechnology Building"}},{"type":"Feature","geometry":{"type":"Point","coordinates":[116.3089599,39.9865635]},"properties":{"layer":"place","kind":"building","name_zh":"燕园大厦","name_en":"Yan Yuan Building"}},{"type":"Feature","geometry":{"type":"Point","coordinates":[116.306848,39.9955783]},"properties":{"layer":"place","kind":"building","name_zh":"经济学院（孝义金晖楼）","name_en":""}},{"type":"Feature","geometry":{"type":"Point","coordinates":[116.2964456,39.9928808]},"properties":{"layer":"place","kind":"building","name_zh":"64号楼","name_en":""}},{"type":"Feature","geometry":{"type":"Point","coordinates":[116.2973379,39.992915]},"properties":{"layer":"place","kind":"building","name_zh":"65号楼","name_en":""}},{"type":"Feature","geometry":{"type":"Point","coordinates":[116.2977259,39.9926906]},"properties":{"layer":"place","kind":"food","name_zh":"畅春园食堂","name_en":"Chang Chun Yuan Dining Hall"}},{"type":"Feature","geometry":{"type":"Point","coordinates":[116.29737,39.9922514]},"properties":{"layer":"place","kind":"building","name_zh":"59号楼","name_en":""}},{"type":"Feature","geometry":{"type":"Point","coordinates":[116.2975031,39.9919222]},"properties":{"layer":"place","kind":"building","name_zh":"58号楼","name_en":""}},{"type":"Feature","geometry":{"type":"Point","coordinates":[116.2975496,39.9916147]},"properties":{"layer":"place","kind":"building","name_zh":"57号楼","name_en":""}},{"type":"Feature","geometry":{"type":"Point","coordinates":[116.2964468,39.9921898]},"properties":{"layer":"place","kind":"building","name_zh":"61号楼","name_en":""}},{"type":"Feature","geometry":{"type":"Point","coordinates":[116.2965003,39.9918767]},"properties":{"layer":"place","kind":"building","name_zh":"62号楼","name_en":""}},{"type":"Feature","geometry":{"type":"Point","coordinates":[116.2964939,39.9915272]},"properties":{"layer":"place","kind":"building","name_zh":"63号楼","name_en":""}},{"type":"Feature","geometry":{"type":"Point","coordinates":[116.2964537,39.9925176]},"properties":{"layer":"place","kind":"building","name_zh":"60号楼","name_en":""}},{"type":"Feature","geometry":{"type":"Point","coordinates":[116.2947617,39.9930192]},"properties":{"layer":"place","kind":"building","name_zh":"北大超市发超市","name_en":""}},{"type":"Feature","geometry":{"type":"Point","coordinates":[116.2953331,39.9917532]},"properties":{"layer":"place","kind":"building","name_zh":"教学楼","name_en":""}},{"type":"Feature","geometry":{"type":"Point","coordinates":[116.3009213,39.9881838]},"properties":{"layer":"place","kind":"building","name_zh":"综合科研2号楼","name_en":"Integrated Science Research Center No. 2"}},{"type":"Feature","geometry":{"type":"Point","coordinates":[116.3015987,39.9884659]},"properties":{"layer":"place","kind":"building","name_zh":"核磁中心","name_en":"Beijing Nuclear Magnetic Resonance Center"}},{"type":"Feature","geometry":{"type":"Point","coordinates":[116.3026325,39.9890209]},"properties":{"layer":"place","kind":"building","name_zh":"51号楼","name_en":""}},{"type":"Feature","geometry":{"type":"Point","coordinates":[116.3030015,39.9889996]},"properties":{"layer":"place","kind":"building","name_zh":"52号楼","name_en":""}},{"type":"Feature","geometry":{"type":"Point","coordinates":[116.3030601,39.9884905]},"properties":{"layer":"place","kind":"building","name_zh":"60号楼","name_en":""}},{"type":"Feature","geometry":{"type":"Point","coordinates":[116.3030706,39.9881321]},"properties":{"layer":"place","kind":"building","name_zh":"59号楼","name_en":""}},{"type":"Feature","geometry":{"type":"Point","coordinates":[116.3035878,39.9890514]},"properties":{"layer":"place","kind":"building","name_zh":"53号楼","name_en":""}},{"type":"Feature","geometry":{"type":"Point","coordinates":[116.3034694,39.9887254]},"properties":{"layer":"place","kind":"building","name_zh":"54号楼","name_en":""}},{"type":"Feature","geometry":{"type":"Point","coordinates":[116.3034433,39.988336]},"properties":{"layer":"place","kind":"building","name_zh":"56号楼","name_en":""}},{"type":"Feature","geometry":{"type":"Point","coordinates":[116.3025924,39.9880522]},"properties":{"layer":"place","kind":"building","name_zh":"62号楼","name_en":""}},{"type":"Feature","geometry":{"type":"Point","coordinates":[116.3022105,39.9880766]},"properties":{"layer":"place","kind":"building","name_zh":"61号楼","name_en":""}},{"type":"Feature","geometry":{"type":"Point","coordinates":[116.301839,39.9889635]},"properties":{"layer":"place","kind":"building","name_zh":"50号楼","name_en":""}},{"type":"Feature","geometry":{"type":"Point","coordinates":[116.3120727,39.99309]},"properties":{"layer":"place","kind":"building","name_zh":"北京大学工学院","name_en":"College of Engineering, Peking University"}},{"type":"Feature","geometry":{"type":"Point","coordinates":[116.30998,39.9945778]},"properties":{"layer":"place","kind":"building","name_zh":"北京大学城市与环境学院","name_en":"College of Urban and Environmental Sciences"}},{"type":"Feature","geometry":{"type":"Point","coordinates":[116.3098346,39.9955147]},"properties":{"layer":"place","kind":"building","name_zh":"北京大学建筑与景观设计学院","name_en":"Institute of Architecture and Landscape"}},{"type":"Feature","geometry":{"type":"Point","coordinates":[116.3055799,39.9980991]},"properties":{"layer":"place","kind":"building","name_zh":"朗润园12号楼","name_en":""}},{"type":"Feature","geometry":{"type":"Point","coordinates":[116.3056197,39.9977434]},"properties":{"layer":"place","kind":"building","name_zh":"朗润园11号楼","name_en":""}},{"type":"Feature","geometry":{"type":"Point","coordinates":[116.3056744,39.9974458]},"properties":{"layer":"place","kind":"building","name_zh":"朗润园10号楼","name_en":""}},{"type":"Feature","geometry":{"type":"Point","coordinates":[116.3057319,39.9971284]},"properties":{"layer":"place","kind":"building","name_zh":"朗润园9号楼","name_en":""}},{"type":"Feature","geometry":{"type":"Point","coordinates":[116.3057837,39.9968219]},"properties":{"layer":"place","kind":"building","name_zh":"朗润园8号楼","name_en":""}},{"type":"Feature","geometry":{"type":"Point","coordinates":[116.3036265,39.9976526]},"properties":{"layer":"place","kind":"building","name_zh":"朗润园13号楼","name_en":""}},{"type":"Feature","geometry":{"type":"Point","coordinates":[116.3047026,39.9979216]},"properties":{"layer":"place","kind":"building","name_zh":"科维理天文与天体物理研究所","name_en":"Kavli Institute for Astronomy and Astrophysics"}},{"type":"Feature","geometry":{"type":"Point","coordinates":[116.3074569,39.9873386]},"properties":{"layer":"place","kind":"sport","name_zh":"篮球场","name_en":"Basketball Court"}},{"type":"Feature","geometry":{"type":"Point","coordinates":[116.309741,39.9976343]},"properties":{"layer":"place","kind":"building","name_zh":"西46楼","name_en":""}},{"type":"Feature","geometry":{"type":"Point","coordinates":[116.3100019,39.9973009]},"properties":{"layer":"place","kind":"building","name_zh":"西47楼","name_en":""}},{"type":"Feature","geometry":{"type":"Point","coordinates":[116.3061213,39.9952215]},"properties":{"layer":"place","kind":"building","name_zh":"哲学系（宗教学系）","name_en":""}},{"type":"Feature","geometry":{"type":"Point","coordinates":[116.3059422,39.9961536]},"properties":{"layer":"place","kind":"building","name_zh":"中国语言文学系","name_en":""}},{"type":"Feature","geometry":{"type":"Point","coordinates":[116.3037461,39.9848585]},"properties":{"layer":"place","kind":"building","name_zh":"海淀区体育运动与卫生健康促进中心","name_en":""}},{"type":"Feature","geometry":{"type":"Point","coordinates":[116.3046954,39.9847533]},"properties":{"layer":"place","kind":"building","name_zh":"中成大厦","name_en":""}},{"type":"Feature","geometry":{"type":"Point","coordinates":[116.3051919,39.996116]},"properties":{"layer":"place","kind":"building","name_zh":"历史学系","name_en":""}},{"type":"Feature","geometry":{"type":"Point","coordinates":[116.3054909,39.9957557]},"properties":{"layer":"place","kind":"building","name_zh":"李兆基人文学苑","name_en":""}},{"type":"Feature","geometry":{"type":"Point","coordinates":[116.305491,39.9955782]},"properties":{"layer":"place","kind":"building","name_zh":"李兆基人文学苑","name_en":""}},{"type":"Feature","geometry":{"type":"Point","coordinates":[116.3055772,39.9953811]},"properties":{"layer":"place","kind":"building","name_zh":"李兆基人文学苑","name_en":""}},{"type":"Feature","geometry":{"type":"Point","coordinates":[116.2998548,39.9874532]},"properties":{"layer":"place","kind":"building","name_zh":"46楼","name_en":""}},{"type":"Feature","geometry":{"type":"Point","coordinates":[116.299916,39.9870223]},"properties":{"layer":"place","kind":"building","name_zh":"47楼","name_en":""}},{"type":"Feature","geometry":{"type":"Point","coordinates":[116.2999427,39.9866528]},"properties":{"layer":"place","kind":"building","name_zh":"48楼","name_en":""}},{"type":"Feature","geometry":{"type":"Point","coordinates":[116.2986387,39.9951121]},"properties":{"layer":"place","kind":"building","name_zh":"中水站","name_en":""}},{"type":"Feature","geometry":{"type":"Point","coordinates":[116.3003694,39.9955106]},"properties":{"layer":"place","kind":"building","name_zh":"考古文博学院","name_en":"School of Archaeology and Museology"}},{"type":"Feature","geometry":{"type":"Point","coordinates":[116.3004318,39.9960013]},"properties":{"layer":"place","kind":"building","name_zh":"实验动物中心B座","name_en":"Laboratory Animal Center Block B"}},{"type":"Feature","geometry":{"type":"Point","coordinates":[116.3065641,39.9966227]},"properties":{"layer":"place","kind":"building","name_zh":"外国语学院","name_en":"School of Foreign Languages"}},{"type":"Feature","geometry":{"type":"Point","coordinates":[116.2975451,39.9902363]},"properties":{"layer":"place","kind":"building","name_zh":"2 号楼","name_en":""}},{"type":"Feature","geometry":{"type":"Point","coordinates":[116.3005299,39.9949761]},"properties":{"layer":"place","kind":"building","name_zh":"校景亭","name_en":"Campus Scenery Pavillion"}},{"type":"Feature","geometry":{"type":"Point","coordinates":[116.2974986,39.990695]},"properties":{"layer":"place","kind":"building","name_zh":"3 号楼","name_en":""}},{"type":"Feature","geometry":{"type":"Point","coordinates":[116.2975679,39.9899118]},"properties":{"layer":"place","kind":"building","name_zh":"1 号楼","name_en":""}},{"type":"Feature","geometry":{"type":"Point","coordinates":[116.2974709,39.9910163]},"properties":{"layer":"place","kind":"building","name_zh":"4 号楼","name_en":""}},{"type":"Feature","geometry":{"type":"Point","coordinates":[116.2997814,39.995953]},"properties":{"layer":"place","kind":"building","name_zh":"实验动物中心A座","name_en":"Laboratory Animal Center Block A"}},{"type":"Feature","geometry":{"type":"Point","coordinates":[116.3096635,39.9989442]},"properties":{"layer":"place","kind":"building","name_zh":"洗车房","name_en":""}},{"type":"Feature","geometry":{"type":"Point","coordinates":[116.305375,39.9951502]},"properties":{"layer":"place","kind":"building","name_zh":"李兆基人文学苑","name_en":""}},{"type":"Feature","geometry":{"type":"Point","coordinates":[116.3014695,39.9962886]},"properties":{"layer":"place","kind":"building","name_zh":"北大-港理工中国社会工作研究中心（恩善苑）","name_en":"PKU-HK PolyU China Social Work Research Center"}},{"type":"Feature","geometry":{"type":"Point","coordinates":[116.3046408,39.992299]},"properties":{"layer":"place","kind":"building","name_zh":"章桂堂","name_en":"Zhanggui Tang"}},{"type":"Feature","geometry":{"type":"Point","coordinates":[116.3050243,39.9922594]},"properties":{"layer":"place","kind":"building","name_zh":"亨利楼","name_en":"Henry House"}},{"type":"Feature","geometry":{"type":"Point","coordinates":[116.3083912,39.9963207]},"properties":{"layer":"place","kind":"building","name_zh":"北大科技园","name_en":"University Science Park"}},{"type":"Feature","geometry":{"type":"Point","coordinates":[116.3039902,39.9917097]},"properties":{"layer":"place","kind":"building","name_zh":"北京大学","name_en":"Peking University"}},{"type":"Feature","geometry":{"type":"Point","coordinates":[116.2998724,39.98527]},"properties":{"layer":"place","kind":"landmark","name_zh":"火神庙","name_en":""}},{"type":"Feature","geometry":{"type":"Point","coordinates":[116.2984903,39.9871988]},"properties":{"layer":"place","kind":"building","name_zh":"畅春园·畅饷里","name_en":""}},{"type":"Feature","geometry":{"type":"Point","coordinates":[116.3038915,39.9905502]},"properties":{"layer":"place","kind":"library","name_zh":"北京大学图书馆","name_en":"Peking University Library"}},{"type":"Feature","geometry":{"type":"Point","coordinates":[116.3085794,39.9883691]},"properties":{"layer":"place","kind":"building","name_zh":"理科五号楼","name_en":"Science Building No. 5"}},{"type":"Feature","geometry":{"type":"Point","coordinates":[116.3009127,39.9888716]},"properties":{"layer":"place","kind":"building","name_zh":"综合科研1号楼（逸夫楼）","name_en":"Integrated Science Research Center No. 1"}},{"type":"Feature","geometry":{"type":"Point","coordinates":[116.3034054,39.9878734]},"properties":{"layer":"place","kind":"building","name_zh":"58号楼","name_en":""}},{"type":"Feature","geometry":{"type":"Point","coordinates":[116.3110049,39.9916147]},"properties":{"layer":"place","kind":"building","name_zh":"物理学院楼","name_en":""}},{"type":"Feature","geometry":{"type":"Point","coordinates":[116.3080682,39.9932194]},"properties":{"layer":"place","kind":"building","name_zh":"微纳电子大厦","name_en":""}},{"type":"Feature","geometry":{"type":"Point","coordinates":[116.3086349,39.9932782]},"properties":{"layer":"place","kind":"building","name_zh":"环境科学与工程学院（刘水楼）","name_en":"School of Environmental Sciences and Engineering"}},{"type":"Feature","geometry":{"type":"Point","coordinates":[116.3085152,39.9903638]},"properties":{"layer":"place","kind":"building","name_zh":"理科三号楼（曙东楼）","name_en":"Science Building No. 3"}},{"type":"Feature","geometry":{"type":"Point","coordinates":[116.3049729,39.9863284]},"properties":{"layer":"place","kind":"building","name_zh":"21楼","name_en":""}},{"type":"Feature","geometry":{"type":"Point","coordinates":[116.3049467,39.9868798]},"properties":{"layer":"place","kind":"building","name_zh":"19楼","name_en":""}},{"type":"Feature","geometry":{"type":"Point","coordinates":[116.3050245,39.9859227]},"properties":{"layer":"place","kind":"building","name_zh":"22楼","name_en":""}},{"type":"Feature","geometry":{"type":"Point","coordinates":[116.3050564,39.9854101]},"properties":{"layer":"place","kind":"building","name_zh":"24楼","name_en":""}},{"type":"Feature","geometry":{"type":"Point","coordinates":[116.3046529,39.9865884]},"properties":{"layer":"place","kind":"building","name_zh":"20楼","name_en":""}},{"type":"Feature","geometry":{"type":"Point","coordinates":[116.3046988,39.985649]},"properties":{"layer":"place","kind":"building","name_zh":"23楼","name_en":""}},{"type":"Feature","geometry":{"type":"Point","coordinates":[116.3072244,39.9894239]},"properties":{"layer":"place","kind":"building","name_zh":"理科一号楼","name_en":"Science Building No. 1"}},{"type":"Feature","geometry":{"type":"Point","coordinates":[116.3085423,39.9911355]},"properties":{"layer":"place","kind":"building","name_zh":"生命科学学院大楼","name_en":"Sinar Mas Life Sciences Building"}},{"type":"Feature","geometry":{"type":"Point","coordinates":[116.3079709,39.9954314]},"properties":{"layer":"place","kind":"health","name_zh":"北京大学校医院","name_en":"Peking University Hospital"}},{"type":"Feature","geometry":{"type":"Point","coordinates":[116.3058089,39.9893953]},"properties":{"layer":"place","kind":"building","name_zh":"光华管理学院1号楼","name_en":"Bldg No. 1, Guanghua School of Management"}},{"type":"Feature","geometry":{"type":"Point","coordinates":[116.3070112,39.9912035]},"properties":{"layer":"place","kind":"building","name_zh":"吕志和楼","name_en":"Lui Che Woo Building"}},{"type":"Feature","geometry":{"type":"Point","coordinates":[116.3083764,39.9942586]},"properties":{"layer":"place","kind":"building","name_zh":"顾颉刚故居","name_en":""}},{"type":"Feature","geometry":{"type":"Point","coordinates":[116.303614,39.9948645]},"properties":{"layer":"place","kind":"building","name_zh":"全斋","name_en":"Quan Hall"}},{"type":"Feature","geometry":{"type":"Point","coordinates":[116.3043031,39.995622]},"properties":{"layer":"place","kind":"building","name_zh":"教育基金会","name_en":"University Education Foundation"}},{"type":"Feature","geometry":{"type":"Point","coordinates":[116.3085542,39.9895221]},"properties":{"layer":"place","kind":"building","name_zh":"理科二号楼（逸夫苑）","name_en":"Science Building No. 2"}},{"type":"Feature","geometry":{"type":"Point","coordinates":[116.3108638,39.993323]},"properties":{"layer":"place","kind":"building","name_zh":"新奥工学大楼","name_en":""}},{"type":"Feature","geometry":{"type":"Point","coordinates":[116.3109922,39.9919795]},"properties":{"layer":"place","kind":"building","name_zh":"北京大学物理学院","name_en":"School of Physics, Peking University"}},{"type":"Feature","geometry":{"type":"Point","coordinates":[116.3108646,39.9932243]},"properties":{"layer":"place","kind":"building","name_zh":"北京大学工学院与交叉学科大楼","name_en":"College of Engineering and Interdisciplinary Studies Building, Peking University"}},{"type":"Feature","geometry":{"type":"Point","coordinates":[116.311308,39.9898748]},"properties":{"layer":"place","kind":"building","name_zh":"北京大学化学与分子工程学院","name_en":""}},{"type":"Feature","geometry":{"type":"Point","coordinates":[116.3057219,39.9988566]},"properties":{"layer":"place","kind":"gate","name_zh":"","name_en":""}},{"type":"Feature","geometry":{"type":"Point","coordinates":[116.3093191,39.9986019]},"properties":{"layer":"place","kind":"gate","name_zh":"西门","name_en":"West Gate"}},{"type":"Feature","geometry":{"type":"Point","coordinates":[116.3096814,39.9995285]},"properties":{"layer":"place","kind":"gate","name_zh":"油库门","name_en":""}},{"type":"Feature","geometry":{"type":"Point","coordinates":[116.295591,39.9932276]},"properties":{"layer":"place","kind":"gate","name_zh":"","name_en":""}},{"type":"Feature","geometry":{"type":"Point","coordinates":[116.2983239,39.9958811]},"properties":{"layer":"place","kind":"gate","name_zh":"","name_en":""}},{"type":"Feature","geometry":{"type":"Point","coordinates":[116.3107343,39.9906469]},"properties":{"layer":"place","kind":"gate","name_zh":"北门","name_en":""}},{"type":"Feature","geometry":{"type":"Point","coordinates":[116.3121705,39.9923178]},"properties":{"layer":"place","kind":"gate","name_zh":"","name_en":""}},{"type":"Feature","geometry":{"type":"Point","coordinates":[116.3121902,39.9920284]},"properties":{"layer":"place","kind":"gate","name_zh":"","name_en":""}},{"type":"Feature","geometry":{"type":"Point","coordinates":[116.3102346,39.9938812]},"properties":{"layer":"place","kind":"gate","name_zh":"西门","name_en":""}},{"type":"Feature","geometry":{"type":"Point","coordinates":[116.300317,39.9836237]},"properties":{"layer":"place","kind":"gate","name_zh":"","name_en":""}},{"type":"Feature","geometry":{"type":"Point","coordinates":[116.3053903,40.0007654]},"properties":{"layer":"place","kind":"gate","name_zh":"","name_en":""}},{"type":"Feature","geometry":{"type":"Point","coordinates":[116.298258,39.9964026]},"properties":{"layer":"place","kind":"gate","name_zh":"","name_en":""}},{"type":"Feature","geometry":{"type":"Point","coordinates":[116.3034946,39.9985825]},"properties":{"layer":"place","kind":"gate","name_zh":"","name_en":""}},{"type":"Feature","geometry":{"type":"Point","coordinates":[116.3036739,39.9982949]},"properties":{"layer":"place","kind":"subway","name_zh":"圆明园","name_en":"Yuanmingyuan Park"}},{"type":"Feature","geometry":{"type":"Point","coordinates":[116.3097264,39.9907813]},"properties":{"layer":"place","kind":"subway","name_zh":"北京大学东门","name_en":"Peking University East Gate"}},{"type":"Feature","geometry":{"type":"Point","coordinates":[116.3107595,39.989082]},"properties":{"layer":"place","kind":"gate","name_zh":"","name_en":""}},{"type":"Feature","geometry":{"type":"Point","coordinates":[116.2978967,39.9892873]},"properties":{"layer":"place","kind":"gate","name_zh":"","name_en":""}},{"type":"Feature","geometry":{"type":"Point","coordinates":[116.298596,39.9880953]},"properties":{"layer":"place","kind":"gate","name_zh":"","name_en":""}},{"type":"Feature","geometry":{"type":"Point","coordinates":[116.3033003,39.9976515]},"properties":{"layer":"place","kind":"gate","name_zh":"","name_en":""}},{"type":"Feature","geometry":{"type":"Point","coordinates":[116.2982077,39.9904973]},"properties":{"layer":"place","kind":"gate","name_zh":"","name_en":""}},{"type":"Feature","geometry":{"type":"Point","coordinates":[116.2982433,39.9931019]},"properties":{"layer":"place","kind":"gate","name_zh":"","name_en":""}},{"type":"Feature","geometry":{"type":"Point","coordinates":[116.2983114,39.9933092]},"properties":{"layer":"place","kind":"gate","name_zh":"","name_en":""}},{"type":"Feature","geometry":{"type":"Point","coordinates":[116.2971189,39.9914042]},"properties":{"layer":"place","kind":"gate","name_zh":"","name_en":""}},{"type":"Feature","geometry":{"type":"Point","coordinates":[116.2968626,39.9929614]},"properties":{"layer":"place","kind":"gate","name_zh":"","name_en":""}},{"type":"Feature","geometry":{"type":"Point","coordinates":[116.3063364,39.9855158]},"properties":{"layer":"place","kind":"gate","name_zh":"","name_en":""}},{"type":"Feature","geometry":{"type":"Point","coordinates":[116.3066224,39.9871548]},"properties":{"layer":"place","kind":"gate","name_zh":"","name_en":""}},{"type":"Feature","geometry":{"type":"Point","coordinates":[116.3065171,39.9869703]},"properties":{"layer":"place","kind":"gate","name_zh":"","name_en":""}},{"type":"Feature","geometry":{"type":"Point","coordinates":[116.3090181,39.9877733]},"properties":{"layer":"place","kind":"gate","name_zh":"","name_en":""}},{"type":"Feature","geometry":{"type":"Point","coordinates":[116.2967444,39.9894655]},"properties":{"layer":"place","kind":"gate","name_zh":"","name_en":""}},{"type":"Feature","geometry":{"type":"Point","coordinates":[116.3065973,39.9850552]},"properties":{"layer":"place","kind":"gate","name_zh":"","name_en":""}},{"type":"Feature","geometry":{"type":"Point","coordinates":[116.3067195,39.984394]},"properties":{"layer":"place","kind":"gate","name_zh":"","name_en":""}},{"type":"Feature","geometry":{"type":"Point","coordinates":[116.3061367,39.9969862]},"properties":{"layer":"place","kind":"gate","name_zh":"","name_en":""}},{"type":"Feature","geometry":{"type":"Point","coordinates":[116.2966961,39.9858697]},"properties":{"layer":"place","kind":"gate","name_zh":"","name_en":""}},{"type":"Feature","geometry":{"type":"Point","coordinates":[116.2980734,39.9860343]},"properties":{"layer":"place","kind":"gate","name_zh":"","name_en":""}}]}